[{"CCSDS_OMM_VERS":"2.0","COMMENT":"GENERATED VIA SPACE-TRACK.ORG API","CREATION_DATE":"2022-12-08T18:21:51","ORIGINATOR":"18 SPCS","OBJECT_NAME":"TITAN 3C TRANSTAGE R\/B","OBJECT_ID":"1975-118C","CENTER_NAME":"EARTH","REF_FRAME":"TEME","TIME_SYSTEM":"UTC","MEAN_ELEMENT_THEORY":"SGP4","EPOCH":"2022-12-07T14:55:24.369312","MEAN_MOTION":"1.00529478","ECCENTRICITY":"0.00145750","INCLINATION":"5.5784","RA_OF_ASC_NODE":"282.6101","ARG_OF_PERICENTER":"175.0314","MEAN_ANOMALY":"185.1428","EPHEMERIS_TYPE":"0","CLASSIFICATION_TYPE":"U","NORAD_CAT_ID":"8516","ELEMENT_SET_NO":"999","REV_AT_EPOCH":"1283","BSTAR":"0.00000000000000","MEAN_MOTION_DOT":"-0.00000072","MEAN_MOTION_DDOT":"0.0000000000000","SEMIMAJOR_AXIS":"42092.646","PERIOD":"1432.416","APOAPSIS":"35775.861","PERIAPSIS":"35653.161","OBJECT_TYPE":"ROCKET BODY","RCS_SIZE":"LARGE","COUNTRY_CODE":"US","LAUNCH_DATE":"1975-12-14","SITE":"AFETR","DECAY_DATE":null,"FILE":"3684614","GP_ID":"219755143","TLE_LINE0":"0 TITAN 3C TRANSTAGE R\/B","TLE_LINE1":"1 08516U 75118C   22341.62180983 -.00000072  00000-0  00000-0 0  9991","TLE_LINE2":"2 08516   5.5784 282.6101 0014575 175.0314 185.1428  1.00529478 12833"},{"CCSDS_OMM_VERS":"2.0","COMMENT":"GENERATED VIA SPACE-TRACK.ORG API","CREATION_DATE":"2022-12-08T18:21:51","ORIGINATOR":"18 SPCS","OBJECT_NAME":"RADUGA 1","OBJECT_ID":"1975-123A","CENTER_NAME":"EARTH","REF_FRAME":"TEME","TIME_SYSTEM":"UTC","MEAN_ELEMENT_THEORY":"SGP4","EPOCH":"2022-12-08T13:32:52.871712","MEAN_MOTION":"1.00286697","ECCENTRICITY":"0.00072120","INCLINATION":"6.1140","RA_OF_ASC_NODE":"286.1792","ARG_OF_PERICENTER":"223.5951","MEAN_ANOMALY":"197.0913","EPHEMERIS_TYPE":"0","CLASSIFICATION_TYPE":"U","NORAD_CAT_ID":"8513","ELEMENT_SET_NO":"999","REV_AT_EPOCH":"18191","BSTAR":"0.00000000000000","MEAN_MOTION_DOT":"0.00000010","MEAN_MOTION_DDOT":"0.0000000000000","SEMIMAJOR_AXIS":"42160.552","PERIOD":"1435.883","APOAPSIS":"35812.823","PERIAPSIS":"35752.011","OBJECT_TYPE":"PAYLOAD","RCS_SIZE":"LARGE","COUNTRY_CODE":"CIS","LAUNCH_DATE":"1975-12-22","SITE":"TTMTR","DECAY_DATE":null,"FILE":"3684614","GP_ID":"219754900","TLE_LINE0":"0 RADUGA 1","TLE_LINE1":"1 08513U 75123A   22342.56450083  .00000010  00000-0  00000-0 0  9990","TLE_LINE2":"2 08513   6.1140 286.1792 0007212 223.5951 197.0913  1.00286697181914"},{"CCSDS_OMM_VERS":"2.0","COMMENT":"GENERATED VIA SPACE-TRACK.ORG API","CREATION_DATE":"2022-12-08T18:21:51","ORIGINATOR":"18 SPCS","OBJECT_NAME":"OPS 3165","OBJECT_ID":"1975-118A","CENTER_NAME":"EARTH","REF_FRAME":"TEME","TIME_SYSTEM":"UTC","MEAN_ELEMENT_THEORY":"SGP4","EPOCH":"2022-12-08T12:38:49.368192","MEAN_MOTION":"1.00480467","ECCENTRICITY":"0.00315860","INCLINATION":"5.6008","RA_OF_ASC_NODE":"282.4412","ARG_OF_PERICENTER":"343.2346","MEAN_ANOMALY":"218.5182","EPHEMERIS_TYPE":"0","CLASSIFICATION_TYPE":"U","NORAD_CAT_ID":"8482","ELEMENT_SET_NO":"999","REV_AT_EPOCH":"1352","BSTAR":"0.00000000000000","MEAN_MOTION_DOT":"0.00000119","MEAN_MOTION_DDOT":"0.0000000000000","SEMIMAJOR_AXIS":"42106.332","PERIOD":"1433.114","APOAPSIS":"35861.194","PERIAPSIS":"35595.200","OBJECT_TYPE":"PAYLOAD","RCS_SIZE":null,"COUNTRY_CODE":"US","LAUNCH_DATE":"1975-12-14","SITE":"AFETR","DECAY_DATE":null,"FILE":"3684614","GP_ID":"219753399","TLE_LINE0":"0 OPS 3165","TLE_LINE1":"1 08482U 75118A   22342.52696028  .00000119  00000-0  00000-0 0  9996","TLE_LINE2":"2 08482   5.6008 282.4412 0031586 343.2346 218.5182  1.00480467 13522"},{"CCSDS_OMM_VERS":"2.0","COMMENT":"GENERATED VIA SPACE-TRACK.ORG API","CREATION_DATE":"2022-12-08T18:21:51","ORIGINATOR":"18 SPCS","OBJECT_NAME":"SATCOM 1","OBJECT_ID":"1975-117A","CENTER_NAME":"EARTH","REF_FRAME":"TEME","TIME_SYSTEM":"UTC","MEAN_ELEMENT_THEORY":"SGP4","EPOCH":"2022-12-08T13:25:08.325696","MEAN_MOTION":"0.99605013","ECCENTRICITY":"0.00162940","INCLINATION":"10.7188","RA_OF_ASC_NODE":"315.0280","ARG_OF_PERICENTER":"235.2957","MEAN_ANOMALY":"106.1249","EPHEMERIS_TYPE":"0","CLASSIFICATION_TYPE":"U","NORAD_CAT_ID":"8476","ELEMENT_SET_NO":"999","REV_AT_EPOCH":"3354","BSTAR":"0.00000000000000","MEAN_MOTION_DOT":"0.00000009","MEAN_MOTION_DDOT":"0.0000000000000","SEMIMAJOR_AXIS":"42352.694","PERIOD":"1445.710","APOAPSIS":"36043.569","PERIAPSIS":"35905.550","OBJECT_TYPE":"PAYLOAD","RCS_SIZE":"LARGE","COUNTRY_CODE":"US","LAUNCH_DATE":"1975-12-13","SITE":"AFETR","DECAY_DATE":null,"FILE":"3684614","GP_ID":"219754642","TLE_LINE0":"0 SATCOM 1","TLE_LINE1":"1 08476U 75117A   22342.55912414  .00000009  00000-0  00000-0 0  9999","TLE_LINE2":"2 08476  10.7188 315.0280 0016294 235.2957 106.1249  0.99605013 33547"},{"CCSDS_OMM_VERS":"2.0","COMMENT":"GENERATED VIA SPACE-TRACK.ORG API","CREATION_DATE":"2022-12-08T18:21:51","ORIGINATOR":"18 SPCS","OBJECT_NAME":"GOES 1 (SMS-C)","OBJECT_ID":"1975-100A","CENTER_NAME":"EARTH","REF_FRAME":"TEME","TIME_SYSTEM":"UTC","MEAN_ELEMENT_THEORY":"SGP4","EPOCH":"2022-12-08T09:32:13.500672","MEAN_MOTION":"1.00244012","ECCENTRICITY":"0.00028430","INCLINATION":"7.8565","RA_OF_ASC_NODE":"293.5542","ARG_OF_PERICENTER":"294.9357","MEAN_ANOMALY":"265.7594","EPHEMERIS_TYPE":"0","CLASSIFICATION_TYPE":"U","NORAD_CAT_ID":"8366","ELEMENT_SET_NO":"999","REV_AT_EPOCH":"17216","BSTAR":"0.00000000000000","MEAN_MOTION_DOT":"-0.00000181","MEAN_MOTION_DDOT":"0.0000000000000","SEMIMAJOR_AXIS":"42172.520","PERIOD":"1436.495","APOAPSIS":"35806.374","PERIAPSIS":"35782.395","OBJECT_TYPE":"PAYLOAD","RCS_SIZE":"LARGE","COUNTRY_CODE":"US","LAUNCH_DATE":"1975-10-16","SITE":"AFETR","DECAY_DATE":null,"FILE":"3684614","GP_ID":"219754639","TLE_LINE0":"0 GOES 1 (SMS-C)","TLE_LINE1":"1 08366U 75100A   22342.39737848 -.00000181  00000-0  00000-0 0  9999","TLE_LINE2":"2 08366   7.8565 293.5542 0002843 294.9357 265.7594  1.00244012172161"},{"CCSDS_OMM_VERS":"2.0","COMMENT":"GENERATED VIA SPACE-TRACK.ORG API","CREATION_DATE":"2022-12-08T18:21:51","ORIGINATOR":"18 SPCS","OBJECT_NAME":"COSMOS 775","OBJECT_ID":"1975-097A","CENTER_NAME":"EARTH","REF_FRAME":"TEME","TIME_SYSTEM":"UTC","MEAN_ELEMENT_THEORY":"SGP4","EPOCH":"2022-12-08T14:11:30.344352","MEAN_MOTION":"1.00299434","ECCENTRICITY":"0.00115780","INCLINATION":"5.6776","RA_OF_ASC_NODE":"283.5603","ARG_OF_PERICENTER":"150.4001","MEAN_ANOMALY":"327.1326","EPHEMERIS_TYPE":"0","CLASSIFICATION_TYPE":"U","NORAD_CAT_ID":"8357","ELEMENT_SET_NO":"999","REV_AT_EPOCH":"11886","BSTAR":"0.00000000000000","MEAN_MOTION_DOT":"-0.00000334","MEAN_MOTION_DDOT":"0.0000000000000","SEMIMAJOR_AXIS":"42156.983","PERIOD":"1435.701","APOAPSIS":"35827.657","PERIAPSIS":"35730.038","OBJECT_TYPE":"PAYLOAD","RCS_SIZE":"LARGE","COUNTRY_CODE":"CIS","LAUNCH_DATE":"1975-10-08","SITE":"TTMTR","DECAY_DATE":null,"FILE":"3684614","GP_ID":"219754396","TLE_LINE0":"0 COSMOS 775","TLE_LINE1":"1 08357U 75097A   22342.59132343 -.00000334  00000-0  00000-0 0  9995","TLE_LINE2":"2 08357   5.6776 283.5603 0011578 150.4001 327.1326  1.00299434118866"},{"CCSDS_OMM_VERS":"2.0","COMMENT":"GENERATED VIA SPACE-TRACK.ORG API","CREATION_DATE":"2022-12-08T18:21:51","ORIGINATOR":"18 SPCS","OBJECT_NAME":"INTELSAT 4A-F1","OBJECT_ID":"1975-091A","CENTER_NAME":"EARTH","REF_FRAME":"TEME","TIME_SYSTEM":"UTC","MEAN_ELEMENT_THEORY":"SGP4","EPOCH":"2022-12-08T08:44:59.013888","MEAN_MOTION":"0.99930411","ECCENTRICITY":"0.00057830","INCLINATION":"10.5973","RA_OF_ASC_NODE":"314.7858","ARG_OF_PERICENTER":"204.7927","MEAN_ANOMALY":"170.6890","EPHEMERIS_TYPE":"0","CLASSIFICATION_TYPE":"U","NORAD_CAT_ID":"8330","ELEMENT_SET_NO":"999","REV_AT_EPOCH":"10861","BSTAR":"0.00000000000000","MEAN_MOTION_DOT":"-0.00000342","MEAN_MOTION_DDOT":"0.0000000000000","SEMIMAJOR_AXIS":"42260.704","PERIOD":"1441.003","APOAPSIS":"35907.008","PERIAPSIS":"35858.129","OBJECT_TYPE":"PAYLOAD","RCS_SIZE":"LARGE","COUNTRY_CODE":"ITSO","LAUNCH_DATE":"1975-09-26","SITE":"AFETR","DECAY_DATE":null,"FILE":"3684614","GP_ID":"219753644","TLE_LINE0":"0 INTELSAT 4A-F1","TLE_LINE1":"1 08330U 75091A   22342.36457192 -.00000342  00000-0  00000-0 0  9996","TLE_LINE2":"2 08330  10.5973 314.7858 0005783 204.7927 170.6890  0.99930411108614"},{"CCSDS_OMM_VERS":"2.0","COMMENT":"GENERATED VIA SPACE-TRACK.ORG API","CREATION_DATE":"2022-12-08T18:21:51","ORIGINATOR":"18 SPCS","OBJECT_NAME":"SYMPHONIE 2","OBJECT_ID":"1975-077A","CENTER_NAME":"EARTH","REF_FRAME":"TEME","TIME_SYSTEM":"UTC","MEAN_ELEMENT_THEORY":"SGP4","EPOCH":"2022-12-07T23:02:42.755712","MEAN_MOTION":"0.99959864","ECCENTRICITY":"0.00037070","INCLINATION":"7.3238","RA_OF_ASC_NODE":"291.3112","ARG_OF_PERICENTER":"348.0937","MEAN_ANOMALY":"200.3576","EPHEMERIS_TYPE":"0","CLASSIFICATION_TYPE":"U","NORAD_CAT_ID":"8132","ELEMENT_SET_NO":"999","REV_AT_EPOCH":"12958","BSTAR":"0.00000000000000","MEAN_MOTION_DOT":"0.00000123","MEAN_MOTION_DDOT":"0.0000000000000","SEMIMAJOR_AXIS":"42252.402","PERIOD":"1440.578","APOAPSIS":"35889.930","PERIAPSIS":"35858.604","OBJECT_TYPE":"PAYLOAD","RCS_SIZE":"LARGE","COUNTRY_CODE":"FGER","LAUNCH_DATE":"1975-08-27","SITE":"AFETR","DECAY_DATE":null,"FILE":"3684614","GP_ID":"219753635","TLE_LINE0":"0 SYMPHONIE 2","TLE_LINE1":"1 08132U 75077A   22341.96021708  .00000123  00000-0  00000-0 0  9991","TLE_LINE2":"2 08132   7.3238 291.3112 0003707 348.0937 200.3576  0.99959864129586"}]